{
  "version": 0.6,
  "generator": "Overpass API 0.7.55.7 8b86ff77",
  "osm3s": {
    "timestamp_osm_base": "2019-08-15T08:40:02Z",
    "timestamp_areas_base": "2019-08-15T07:54:02Z",
    "copyright": "The data included in this document is from www.openstreetmap.org. The data is made available under ODbL."
  },
  "elements": [
    {
      "type": "node",
      "id": 294001841,
      "lat": 0.3265082,
      "lon": 32.6064419,
      "tags": {
        "name": "Shoprite Lugogo",
        "shop": "supermarket"
      }
    },
    {
      "type": "node",
      "id": 590641752,
      "lat": 0.3538017,
      "lon": 32.6115265,
      "tags": {
        "name": "Quality Supermarket Ntinda",
        "shop": "supermarket"
      }
    },
    {
      "type": "node",
      "id": 598134728,
      "lat": 0.3261656,
      "lon": 32.6151574,
      "tags": {
        "name": "Capital Shoppers",
        "shop": "supermarket"
      }
    },
    {
      "type": "node",
      "id": 598134748,
      "lat": 0.3142905,
      "lon": 32.634945,
      "tags": {
        "name": "Half Price Supermarket",
        "shop": "supermarket"
      }
    },
    {
      "type": "node",
      "id": 599171968,
      "lat": 0.3382142,
      "lon": 32.5873414,
      "tags": {
        "name": "Millennium Supermarket",
        "shop": "supermarket",
        "website": "http://www.millenniumsupermarket.com/profile.html"
      }
    },
    {
      "type": "node",
      "id": 599171969,
      "lat": 0.3386496,
      "lon": 32.58817,
      "tags": {
        "name": "Checkers",
        "shop": "supermarket"
      }
    },
    {
      "type": "node",
      "id": 601454386,
      "lat": 0.3160626,
      "lon": 32.6499778,
      "tags": {
        "name": "Good Price Supermarket",
        "shop": "supermarket"
      }
    },
    {
      "type": "node",
      "id": 601454493,
      "lat": 0.3194213,
      "lon": 32.6476838,
      "tags": {
        "name": "Cool Price Shoppers",
        "shop": "supermarket"
      }
    },
    {
      "type": "node",
      "id": 604685999,
      "lat": 0.327269,
      "lon": 32.637687,
      "tags": {
        "name": "Corner House",
        "shop": "supermarket"
      }
    },
    {
      "type": "node",
      "id": 606953338,
      "lat": 0.3208307,
      "lon": 32.6185584,
      "tags": {
        "name": "Jazz Supermarket",
        "shop": "supermarket"
      }
    },
    {
      "type": "node",
      "id": 606953361,
      "lat": 0.3119237,
      "lon": 32.6085598,
      "tags": {
        "name": "Best Price",
        "shop": "supermarket"
      }
    },
    {
      "type": "node",
      "id": 606953386,
      "lat": 0.3022776,
      "lon": 32.617107,
      "tags": {
        "name": "Shopping Mark",
        "shop": "supermarket"
      }
    },
    {
      "type": "node",
      "id": 608969402,
      "lat": 0.2838423,
      "lon": 32.6097693,
      "tags": {
        "name": "485",
        "shop": "supermarket"
      }
    },
    {
      "type": "node",
      "id": 608969420,
      "lat": 0.2928313,
      "lon": 32.6054659,
      "tags": {
        "name": "John Rich",
        "shop": "supermarket"
      }
    },
    {
      "type": "node",
      "id": 608969423,
      "lat": 0.2942398,
      "lon": 32.6055003,
      "tags": {
        "name": "Mega Store",
        "shop": "supermarket"
      }
    },
    {
      "type": "node",
      "id": 610916427,
      "lat": 0.3508183,
      "lon": 32.5978176,
      "tags": {
        "name": "Sunrise Supermarket",
        "shop": "supermarket"
      }
    },
    {
      "type": "node",
      "id": 610916489,
      "lat": 0.3498372,
      "lon": 32.5983485,
      "tags": {
        "name": "Askata Supermarket",
        "shop": "supermarket"
      }
    },
    {
      "type": "node",
      "id": 610938779,
      "lat": 0.3491851,
      "lon": 32.5988287,
      "tags": {
        "shop": "supermarket"
      }
    },
    {
      "type": "node",
      "id": 610939178,
      "lat": 0.3014784,
      "lon": 32.6472552,
      "tags": {
        "name": "Thomas Crown",
        "shop": "supermarket"
      }
    },
    {
      "type": "node",
      "id": 610939191,
      "lat": 0.3013805,
      "lon": 32.6473112,
      "tags": {
        "name": "Jubilee",
        "shop": "supermarket"
      }
    },
    {
      "type": "node",
      "id": 610939311,
      "lat": 0.3023385,
      "lon": 32.6444436,
      "tags": {
        "name": "St. Thereza",
        "shop": "supermarket"
      }
    },
    {
      "type": "node",
      "id": 616175883,
      "lat": 0.302639,
      "lon": 32.6015404,
      "tags": {
        "name": "Afri Den Supermarket",
        "shop": "supermarket"
      }
    },
    {
      "type": "node",
      "id": 616288139,
      "lat": 0.309667,
      "lon": 32.5926474,
      "tags": {
        "name": "Atlantis Supermarket",
        "shop": "supermarket"
      }
    },
    {
      "type": "node",
      "id": 616311321,
      "lat": 0.316546,
      "lon": 32.5699728,
      "tags": {
        "name": "Quality Supermarket Old Kampala",
        "shop": "supermarket"
      }
    },
    {
      "type": "node",
      "id": 632607005,
      "lat": 0.37288,
      "lon": 32.6288557,
      "tags": {
        "name": "PK Supermarket",
        "shop": "supermarket"
      }
    },
    {
      "type": "node",
      "id": 729785012,
      "lat": 0.3714666,
      "lon": 32.6289202,
      "tags": {
        "name": "Karibu Supermarket",
        "shop": "supermarket"
      }
    },
    {
      "type": "node",
      "id": 960097954,
      "lat": 0.3811106,
      "lon": 32.5766478,
      "tags": {
        "name": "People's Supermarket",
        "shop": "supermarket"
      }
    },
    {
      "type": "node",
      "id": 993664478,
      "lat": 0.2818632,
      "lon": 32.5932231,
      "tags": {
        "name": "Fresta Supermarket",
        "shop": "supermarket"
      }
    },
    {
      "type": "node",
      "id": 1247068983,
      "lat": 0.2990757,
      "lon": 32.5557139,
      "tags": {
        "name": "Friends Shoppers",
        "shop": "supermarket"
      }
    },
    {
      "type": "node",
      "id": 1312750601,
      "lat": 0.3549457,
      "lon": 32.612484,
      "tags": {
        "name": "Tuskys Supermarket Ntinda",
        "shop": "supermarket",
        "source": "survey"
      }
    },
    {
      "type": "node",
      "id": 1312757071,
      "lat": 0.3694285,
      "lon": 32.6020306,
      "tags": {
        "shop": "supermarket"
      }
    },
    {
      "type": "node",
      "id": 1313102202,
      "lat": 0.3605453,
      "lon": 32.6082654,
      "tags": {
        "name": "Africana Supermarket",
        "shop": "supermarket"
      }
    },
    {
      "type": "node",
      "id": 1313122955,
      "lat": 0.348387,
      "lon": 32.5982317,
      "tags": {
        "name": "Super Supermarket",
        "shop": "supermarket"
      }
    },
    {
      "type": "node",
      "id": 1583800383,
      "lat": 0.3100086,
      "lon": 32.6091516,
      "tags": {
        "name": "cheaper price supermarket",
        "shop": "supermarket"
      }
    },
    {
      "type": "node",
      "id": 1788488877,
      "lat": 0.2975967,
      "lon": 32.6009562,
      "tags": {
        "name": "Deep Enterprises LTD",
        "shop": "supermarket"
      }
    },
    {
      "type": "node",
      "id": 2097716982,
      "lat": 0.3264286,
      "lon": 32.6067326,
      "tags": {
        "name": "Game Store",
        "shop": "supermarket"
      }
    },
    {
      "type": "node",
      "id": 2126241019,
      "lat": 0.3821044,
      "lon": 32.5559131,
      "tags": {
        "shop": "supermarket"
      }
    },
    {
      "type": "node",
      "id": 2317188384,
      "lat": 0.2839268,
      "lon": 32.6091476,
      "tags": {
        "name": "Dees Seven Ten Stores",
        "shop": "supermarket"
      }
    },
    {
      "type": "node",
      "id": 2341568583,
      "lat": 0.3148341,
      "lon": 32.5642043,
      "tags": {
        "name": "Standard Supermarkert",
        "shop": "supermarket"
      }
    },
    {
      "type": "node",
      "id": 2354898212,
      "lat": 0.2672421,
      "lon": 32.6230751,
      "tags": {
        "name": "Cinderella SuperMarket",
        "shop": "supermarket"
      }
    },
    {
      "type": "node",
      "id": 2354898222,
      "lat": 0.2660031,
      "lon": 32.624732,
      "tags": {
        "name": "Hem Supermarket and Pharmacy",
        "shop": "supermarket"
      }
    },
    {
      "type": "node",
      "id": 2365511220,
      "lat": 0.2775112,
      "lon": 32.6146362,
      "tags": {
        "name": "super super market",
        "shop": "supermarket"
      }
    },
    {
      "type": "node",
      "id": 2373730839,
      "lat": 0.3044261,
      "lon": 32.564004,
      "tags": {
        "name": "Best Buy Supermarket",
        "shop": "supermarket"
      }
    },
    {
      "type": "node",
      "id": 2373730841,
      "lat": 0.3062483,
      "lon": 32.5616426,
      "tags": {
        "name": "Gods Grace supermarket",
        "shop": "supermarket"
      }
    },
    {
      "type": "node",
      "id": 2375808458,
      "lat": 0.2987861,
      "lon": 32.5338029,
      "tags": {
        "name": "Uchumi",
        "shop": "supermarket"
      }
    },
    {
      "type": "node",
      "id": 2375808461,
      "lat": 0.2986914,
      "lon": 32.5336797,
      "tags": {
        "name": "Nateete Shopping Centre",
        "shop": "supermarket"
      }
    },
    {
      "type": "node",
      "id": 2375816095,
      "lat": 0.2994674,
      "lon": 32.5333997,
      "tags": {
        "name": "aristo",
        "shop": "supermarket"
      }
    },
    {
      "type": "node",
      "id": 2545526391,
      "lat": 0.3032279,
      "lon": 32.651574,
      "tags": {
        "name": "Harryz Supermarket",
        "shop": "supermarket"
      }
    },
    {
      "type": "node",
      "id": 2617434067,
      "lat": 0.2996525,
      "lon": 32.5963379,
      "tags": {
        "name": "Uchumi Supermarket",
        "shop": "supermarket"
      }
    },
    {
      "type": "node",
      "id": 2674454372,
      "lat": 0.2972363,
      "lon": 32.6028458,
      "tags": {
        "name": "Johnrich Cheap Store",
        "shop": "supermarket"
      }
    },
    {
      "type": "node",
      "id": 2694338789,
      "lat": 0.3281222,
      "lon": 32.5704169,
      "tags": {
        "branch": "Makerere Branch",
        "name": "Tuskys",
        "shop": "supermarket",
        "website": "https://www.tuskys.com/"
      }
    },
    {
      "type": "node",
      "id": 2857797105,
      "lat": 0.3910371,
      "lon": 32.5931763,
      "tags": {
        "addr:city": "kampala",
        "addr:street": "Kisaasi Road",
        "name": "kensington boulevard",
        "shop": "supermarket"
      }
    },
    {
      "type": "node",
      "id": 2923263210,
      "lat": 0.3213011,
      "lon": 32.6123769,
      "tags": {
        "name": "nssf Bugolobi",
        "shop": "supermarket"
      }
    },
    {
      "type": "node",
      "id": 2966666275,
      "lat": 0.3489994,
      "lon": 32.616874,
      "tags": {
        "name": "Capital Shoppers",
        "phone": "+256 706 267800",
        "shop": "supermarket"
      }
    },
    {
      "type": "node",
      "id": 2990518363,
      "lat": 0.2988112,
      "lon": 32.6022316,
      "tags": {
        "addr:city": "Kampala",
        "addr:street": "Tank Hill Road",
        "name": "Brisk Supermarket",
        "shop": "supermarket"
      }
    },
    {
      "type": "node",
      "id": 3292453312,
      "lat": 0.319909,
      "lon": 32.5920319,
      "tags": {
        "level": "-1",
        "name": "Capital Shoppers",
        "shop": "supermarket"
      }
    },
    {
      "type": "node",
      "id": 3328341236,
      "lat": 0.3021763,
      "lon": 32.6173455,
      "tags": {
        "name": "Supermarket",
        "shop": "supermarket"
      }
    },
    {
      "type": "node",
      "id": 3362998776,
      "lat": 0.3096275,
      "lon": 32.5779528,
      "tags": {
        "name": "Shoprite",
        "shop": "supermarket"
      }
    },
    {
      "type": "node",
      "id": 3380711899,
      "lat": 0.3043094,
      "lon": 32.5581974,
      "tags": {
        "name": "Africana Supermarket",
        "shop": "supermarket"
      }
    },
    {
      "type": "node",
      "id": 3380774906,
      "lat": 0.2968552,
      "lon": 32.5543691,
      "tags": {
        "name": "Fresh Supermarket",
        "shop": "supermarket"
      }
    },
    {
      "type": "node",
      "id": 3381056738,
      "lat": 0.3475498,
      "lon": 32.5666021,
      "tags": {
        "name": "JRD Grocery",
        "shop": "supermarket"
      }
    },
    {
      "type": "node",
      "id": 3397198945,
      "lat": 0.3367535,
      "lon": 32.6209812,
      "tags": {
        "name": "Savers",
        "shop": "supermarket"
      }
    },
    {
      "type": "node",
      "id": 3404121867,
      "lat": 0.3606254,
      "lon": 32.5615911,
      "tags": {
        "name": "E-Brands Supermarket",
        "shop": "supermarket"
      }
    },
    {
      "type": "node",
      "id": 3404228542,
      "lat": 0.3165883,
      "lon": 32.5735113,
      "tags": {
        "addr:street": "Kikuubo Lane",
        "name": "Senana Investment Ltd.",
        "shop": "supermarket"
      }
    },
    {
      "type": "node",
      "id": 3406756139,
      "lat": 0.3187309,
      "lon": 32.5739939,
      "tags": {
        "name": "Rwenzori Supermarket",
        "shop": "supermarket"
      }
    },
    {
      "type": "node",
      "id": 3406834821,
      "lat": 0.3398626,
      "lon": 32.571702,
      "tags": {
        "name": "Sky Shoppers",
        "shop": "supermarket"
      }
    },
    {
      "type": "node",
      "id": 3428758508,
      "lat": 0.3499714,
      "lon": 32.6020908,
      "tags": {
        "name": "Kenjoy",
        "phone": "0414376370",
        "shop": "supermarket"
      }
    },
    {
      "type": "node",
      "id": 3429320057,
      "lat": 0.3380786,
      "lon": 32.5852926,
      "tags": {
        "name": "Savers",
        "shop": "supermarket"
      }
    },
    {
      "type": "node",
      "id": 3429320065,
      "lat": 0.3501771,
      "lon": 32.5981681,
      "tags": {
        "name": "5 Star Supermarket",
        "shop": "supermarket"
      }
    },
    {
      "type": "node",
      "id": 3439350231,
      "lat": 0.3258006,
      "lon": 32.5737355,
      "tags": {
        "name": "Savers",
        "shop": "supermarket"
      }
    },
    {
      "type": "node",
      "id": 3449159080,
      "lat": 0.3665477,
      "lon": 32.5601252,
      "tags": {
        "name": "Quicksaver Supermarket",
        "shop": "supermarket"
      }
    },
    {
      "type": "node",
      "id": 3474020293,
      "lat": 0.343875,
      "lon": 32.5533103,
      "tags": {
        "name": "Joman Grocery",
        "shop": "supermarket"
      }
    },
    {
      "type": "node",
      "id": 3474020295,
      "lat": 0.3110256,
      "lon": 32.5589676,
      "tags": {
        "name": "Mengo Shoppers Supermarket",
        "shop": "supermarket"
      }
    },
    {
      "type": "node",
      "id": 3474020383,
      "lat": 0.3248793,
      "lon": 32.5594861,
      "tags": {
        "name": "Tuskys",
        "shop": "supermarket"
      }
    },
    {
      "type": "node",
      "id": 3639824214,
      "lat": 0.351093,
      "lon": 32.5626509,
      "tags": {
        "branch": "Bwaise Branch",
        "name": "Tuskys",
        "shop": "supermarket",
        "website": "https://www.tuskys.com/"
      }
    },
    {
      "type": "node",
      "id": 3652954271,
      "lat": 0.3824414,
      "lon": 32.5561276,
      "tags": {
        "name": "Buy 'n' Save Supermarket",
        "shop": "supermarket"
      }
    },
    {
      "type": "node",
      "id": 3652954272,
      "lat": 0.3111825,
      "lon": 32.5792786,
      "tags": {
        "name": "Capital Shoppers",
        "shop": "supermarket"
      }
    },
    {
      "type": "node",
      "id": 3670180929,
      "lat": 0.2666828,
      "lon": 32.6237555,
      "tags": {
        "name": "Cinderella Supermarket",
        "shop": "supermarket"
      }
    },
    {
      "type": "node",
      "id": 3684493553,
      "lat": 0.3597062,
      "lon": 32.5619144,
      "tags": {
        "name": "Home Sales Supermarket",
        "shop": "supermarket"
      }
    },
    {
      "type": "node",
      "id": 3684526544,
      "lat": 0.2838265,
      "lon": 32.582963,
      "tags": {
        "name": "Mark Enterprises Supermarket",
        "shop": "supermarket"
      }
    },
    {
      "type": "node",
      "id": 3737281829,
      "lat": 0.316888,
      "lon": 32.5737349,
      "tags": {
        "name": "Pride Super Market",
        "shop": "supermarket"
      }
    },
    {
      "type": "node",
      "id": 3755756758,
      "lat": 0.3758506,
      "lon": 32.6061968,
      "tags": {
        "name": "Shop and save",
        "shop": "supermarket"
      }
    },
    {
      "type": "node",
      "id": 3797010722,
      "lat": 0.3151561,
      "lon": 32.589566,
      "tags": {
        "name": "Home Care Supermarket",
        "shop": "supermarket"
      }
    },
    {
      "type": "node",
      "id": 3798804090,
      "lat": 0.3183104,
      "lon": 32.5754847,
      "tags": {
        "name": "Angies Mini",
        "shop": "supermarket"
      }
    },
    {
      "type": "node",
      "id": 3804503428,
      "lat": 0.3541293,
      "lon": 32.5721398,
      "tags": {
        "name": "Diamond Apex",
        "shop": "supermarket"
      }
    },
    {
      "type": "node",
      "id": 3808219451,
      "lat": 0.3084251,
      "lon": 32.569258,
      "tags": {
        "name": "City Star Supermarket",
        "shop": "supermarket"
      }
    },
    {
      "type": "node",
      "id": 3808219635,
      "lat": 0.3083143,
      "lon": 32.5688359,
      "tags": {
        "addr:city": "Kampala",
        "addr:street": "Kisenyi Road",
        "name": "Mubarak Supermarket",
        "shop": "supermarket"
      }
    },
    {
      "type": "node",
      "id": 3813811822,
      "lat": 0.3125717,
      "lon": 32.5773675,
      "tags": {
        "name": "Mega Standard Supermarket",
        "shop": "supermarket"
      }
    },
    {
      "type": "node",
      "id": 3813811833,
      "lat": 0.3122614,
      "lon": 32.5795715,
      "tags": {
        "name": "Kampala Stocks Supermarket",
        "shop": "supermarket"
      }
    },
    {
      "type": "node",
      "id": 3813890243,
      "lat": 0.3114508,
      "lon": 32.5792835,
      "tags": {
        "name": "Golden Globe Impex Limited",
        "shop": "supermarket"
      }
    },
    {
      "type": "node",
      "id": 3813890582,
      "lat": 0.3130697,
      "lon": 32.5729713,
      "tags": {
        "name": "Rictex Supermarket",
        "shop": "supermarket"
      }
    },
    {
      "type": "node",
      "id": 3814362049,
      "lat": 0.3085169,
      "lon": 32.5702937,
      "tags": {
        "name": "Najah Supermarket",
        "shop": "supermarket"
      }
    },
    {
      "type": "node",
      "id": 3942218893,
      "lat": 0.3141834,
      "lon": 32.582164,
      "tags": {
        "name": "D & M Supermarket",
        "shop": "supermarket"
      }
    },
    {
      "type": "node",
      "id": 3950442452,
      "lat": 0.3329004,
      "lon": 32.6067827,
      "tags": {
        "name": "Daviet Supermarket",
        "shop": "supermarket"
      }
    },
    {
      "type": "node",
      "id": 3957035888,
      "lat": 0.3385014,
      "lon": 32.5631551,
      "tags": {
        "name": "Dove Supermarket",
        "shop": "supermarket"
      }
    },
    {
      "type": "node",
      "id": 3982514361,
      "lat": 0.3147042,
      "lon": 32.5712518,
      "tags": {
        "name": "Nice Bazaar",
        "shop": "supermarket"
      }
    },
    {
      "type": "node",
      "id": 3982840288,
      "lat": 0.3174698,
      "lon": 32.5696373,
      "tags": {
        "name": "Sharma Supermarket",
        "shop": "supermarket"
      }
    },
    {
      "type": "node",
      "id": 3982955212,
      "lat": 0.317839,
      "lon": 32.5694914,
      "tags": {
        "name": "Kumar Supermarket",
        "shop": "supermarket"
      }
    },
    {
      "type": "node",
      "id": 3983334968,
      "lat": 0.2866317,
      "lon": 32.5803157,
      "tags": {
        "name": "Priceless Mini Supermarket",
        "shop": "supermarket"
      }
    },
    {
      "type": "node",
      "id": 3984235973,
      "lat": 0.2795383,
      "lon": 32.5834311,
      "tags": {
        "name": "Epitome Supermarket",
        "shop": "supermarket"
      }
    },
    {
      "type": "node",
      "id": 4003306161,
      "lat": 0.3266854,
      "lon": 32.6109119,
      "tags": {
        "name": "Bonjour",
        "shop": "supermarket"
      }
    },
    {
      "type": "node",
      "id": 4005082564,
      "lat": 0.3674868,
      "lon": 32.6329567,
      "tags": {
        "level": "1",
        "name": "Shoprite Checkers Uganda Limited",
        "shop": "supermarket"
      }
    },
    {
      "type": "node",
      "id": 4017086109,
      "lat": 0.3612111,
      "lon": 32.6194301,
      "tags": {
        "name": "Sunny China Supermarket",
        "shop": "supermarket"
      }
    },
    {
      "type": "node",
      "id": 4018003963,
      "lat": 0.3613596,
      "lon": 32.6198824,
      "tags": {
        "name": "Del Supermarket",
        "shop": "supermarket"
      }
    },
    {
      "type": "node",
      "id": 4018003964,
      "lat": 0.3617712,
      "lon": 32.6218855,
      "tags": {
        "name": "Jukena Supermarket",
        "shop": "supermarket"
      }
    },
    {
      "type": "node",
      "id": 4018004017,
      "lat": 0.3615473,
      "lon": 32.620529,
      "tags": {
        "name": "Royal Supermarket",
        "shop": "supermarket"
      }
    },
    {
      "type": "node",
      "id": 4086537401,
      "lat": 0.3856599,
      "lon": 32.5777426,
      "tags": {
        "addr:city": "Kampala",
        "addr:street": "Gayaza Road",
        "amenity": "mobile_money_agent",
        "description": "Not around",
        "female": "no",
        "level": "0",
        "male": "yes",
        "network": "MTN Mobile Money",
        "opening_hours": "Mo-Su 10:00-18:00",
        "shop": "supermarket"
      }
    },
    {
      "type": "node",
      "id": 4086537403,
      "lat": 0.3972018,
      "lon": 32.5814614,
      "tags": {
        "addr:city": "Kampala",
        "addr:street": "Gayaza Road",
        "amenity": "mobile_money_agent",
        "description": "Agent refused to give information",
        "female": "yes",
        "level": "0",
        "male": "no",
        "network": "Airtel Money;MTN Mobile Money",
        "opening_hours": "Mo-Su 09:00-21:00",
        "shop": "supermarket"
      }
    },
    {
      "type": "node",
      "id": 4086729514,
      "lat": 0.3686523,
      "lon": 32.5853271,
      "tags": {
        "addr:city": "Kampala",
        "addr:street": "kitala taso road",
        "amenity": "mobile_money_agent",
        "female": "yes",
        "level": "0",
        "male": "no",
        "name": "Vision limited",
        "network": "Airtel Money;MTN Mobile Money",
        "opening_hours": "Mo-Sa 08:00-18:00",
        "phone": "0704826767",
        "shop": "supermarket"
      }
    },
    {
      "type": "node",
      "id": 4090056206,
      "lat": 0.3470355,
      "lon": 32.5667096,
      "tags": {
        "addr:city": "Kampala",
        "addr:street": "Bombo Road",
        "amenity": "mobile_money_agent",
        "female": "yes",
        "male": "no",
        "name": "Nema Investments",
        "network": "Airtel Money;MTN Mobile Money",
        "opening_hours": "Mo-Fr 08:00-18:00; Sa-Su 08:00-15:00",
        "shop": "supermarket"
      }
    },
    {
      "type": "node",
      "id": 4097455461,
      "lat": 0.3353675,
      "lon": 32.5620252,
      "tags": {
        "addr:city": "Kampala",
        "addr:street": "Kimera street",
        "amenity": "mobile_money_agent",
        "female": "yes",
        "level": "0",
        "male": "yes",
        "name": "Prince Hostel Supermarket",
        "network": "Airtel Money;MTN Mobile Money",
        "opening_hours": "Mo-Su 09:00-21:00",
        "shop": "supermarket"
      }
    },
    {
      "type": "node",
      "id": 4100217904,
      "lat": 0.3533557,
      "lon": 32.5983055,
      "tags": {
        "addr:city": "Kampala",
        "addr:street": "Kisaasi Road",
        "amenity": "mobile_money_agent",
        "female": "yes",
        "male": "no",
        "network": "Airtel Money;MTN Mobile Money",
        "opening_hours": "Mo-Fr 09:00-17:00",
        "shop": "supermarket"
      }
    },
    {
      "type": "node",
      "id": 4102222524,
      "lat": 0.3376365,
      "lon": 32.5422147,
      "tags": {
        "addr:city": "Kampala",
        "addr:street": "Kigobe Road",
        "amenity": "mobile_money_agent",
        "female": "yes",
        "male": "no",
        "name": "Carol & Daughters Glocery",
        "network": "Airtel Money;MTN Mobile Money",
        "opening_hours": "Mo-Sa 08:00-18:00",
        "phone": "0772441994",
        "shop": "supermarket"
      }
    },
    {
      "type": "node",
      "id": 4102252562,
      "lat": 0.3080547,
      "lon": 32.5971638,
      "tags": {
        "addr:city": "Kampala",
        "amenity": "mobile_money_agent",
        "female": "yes",
        "level": "0",
        "male": "yes",
        "name": "Alone Talkrim",
        "network": "Airtel Money;MTN Mobile Money",
        "opening_hours": "Mo-Fr 08:00-18:00; Sa-Su 08:00-15:00",
        "shop": "supermarket"
      }
    },
    {
      "type": "node",
      "id": 4102400559,
      "lat": 0.2978356,
      "lon": 32.6020019,
      "tags": {
        "addr:city": "Kampala",
        "addr:street": "Ggaba Road",
        "female": "yes",
        "male": "no",
        "name": "Friendly Supermarket",
        "name:en": "Friendly Supermarket",
        "name:zh": "友好超市",
        "network": "Airtel Money;MTN Mobile Money",
        "opening_hours": "Mo-Sa 08:00-18:00",
        "shop": "supermarket"
      }
    },
    {
      "type": "node",
      "id": 4102526890,
      "lat": 0.3379349,
      "lon": 32.5550866,
      "tags": {
        "addr:city": "Kampala",
        "addr:street": "Kawala Road",
        "amenity": "mobile_money_agent",
        "female": "yes",
        "male": "no",
        "name": "Bahe Supermarket",
        "network": "Airtel Money;MTN Mobile Money",
        "opening_hours": "Mo-Su 09:00-21:00",
        "shop": "supermarket"
      }
    },
    {
      "type": "node",
      "id": 4102526902,
      "lat": 0.3400377,
      "lon": 32.5544858,
      "tags": {
        "addr:city": "Kampala",
        "addr:street": "Kawala Road",
        "amenity": "mobile_money_agent",
        "female": "yes",
        "male": "yes",
        "name": "Mummy and Daddy Grocery",
        "network": "MTN Mobile Money",
        "opening_hours": "Mo-Su 09:00-21:00",
        "shop": "supermarket"
      }
    },
    {
      "type": "node",
      "id": 4102531687,
      "lat": 0.3361035,
      "lon": 32.6094823,
      "tags": {
        "addr:city": "Kampala",
        "addr:street": "Katalima Loop",
        "amenity": "mobile_money_agent",
        "female": "yes",
        "male": "no",
        "name": "Quick Pick Supermarket",
        "network": "Airtel Money;MTN Mobile Money",
        "opening_hours": "Mo-Sa 08:00-18:00",
        "shop": "supermarket"
      }
    },
    {
      "type": "node",
      "id": 4102652128,
      "lat": 0.3893626,
      "lon": 32.5925679,
      "tags": {
        "addr:city": "Kampala",
        "amenity": "mobile_money_agent",
        "female": "yes",
        "male": "no",
        "network": "Airtel Money;MTN Mobile Money",
        "opening_hours": "Mo-Su 09:00-21:00",
        "shop": "supermarket"
      }
    },
    {
      "type": "node",
      "id": 4102726413,
      "lat": 0.275087,
      "lon": 32.6040156,
      "tags": {
        "addr:city": "Kampala",
        "addr:street": "Lukuli Road",
        "amenity": "mobile_money_agent",
        "female": "no",
        "level": "0",
        "male": "yes",
        "name": "Kalonge And Shoppers",
        "network": "Airtel Money;MTN Mobile Money",
        "opening_hours": "Mo-Su 09:00-21:00",
        "shop": "supermarket"
      }
    },
    {
      "type": "node",
      "id": 4104666140,
      "lat": 0.3295013,
      "lon": 32.5492726,
      "tags": {
        "addr:city": "Kampala",
        "addr:street": "Masiro Road",
        "amenity": "mobile_money_agent",
        "female": "no",
        "male": "yes",
        "name": "Skyways Supermarket",
        "network": "Airtel Money;UTL M-Sente;MTN Mobile Money",
        "opening_hours": "Mo-Su 09:00-21:00",
        "shop": "supermarket"
      }
    },
    {
      "type": "node",
      "id": 4104720692,
      "lat": 0.3168933,
      "lon": 32.5523665,
      "tags": {
        "addr:city": "Kampala",
        "addr:street": "Sentema Road",
        "amenity": "mobile_money_agent",
        "female": "yes",
        "level": "0",
        "male": "no",
        "name": "Extra Groceries",
        "network": "Airtel Money;MTN Mobile Money",
        "shop": "supermarket"
      }
    },
    {
      "type": "node",
      "id": 4105304556,
      "lat": 0.3207933,
      "lon": 32.6185006,
      "tags": {
        "addr:city": "Kampala",
        "addr:street": "Spring Road",
        "amenity": "mobile_money_agent",
        "female": "no",
        "male": "yes",
        "name": "Jazz Supermarket",
        "network": "Airtel Money;MTN Mobile Money",
        "opening_hours": "Mo-Su 09:00-21:00",
        "shop": "supermarket"
      }
    },
    {
      "type": "node",
      "id": 4105394617,
      "lat": 0.3270116,
      "lon": 32.611414,
      "tags": {
        "addr:city": "Kampala",
        "amenity": "mobile_money_agent",
        "female": "yes",
        "male": "no",
        "name": "Bonjour",
        "network": "Airtel Money;MTN Mobile Money",
        "opening_hours": "Mo-Su 09:00-21:00",
        "shop": "supermarket"
      }
    },
    {
      "type": "node",
      "id": 4105543895,
      "lat": 0.375803,
      "lon": 32.6001328,
      "tags": {
        "addr:city": "Kampala",
        "amenity": "mobile_money_agent",
        "female": "no",
        "male": "yes",
        "network": "Airtel Money;MTN Mobile Money",
        "opening_hours": "Mo-Su 09:00-21:00",
        "shop": "supermarket"
      }
    },
    {
      "type": "node",
      "id": 4107447819,
      "lat": 0.3079898,
      "lon": 32.5161947,
      "tags": {
        "addr:city": "Kampala",
        "addr:street": "Masaka Road",
        "amenity": "mobile_money_agent",
        "female": "no",
        "male": "yes",
        "name": "Jena Mini Glocery",
        "network": "Airtel Money;MTN Mobile Money",
        "opening_hours": "Mo-Sa 08:00-18:00",
        "shop": "supermarket"
      }
    },
    {
      "type": "node",
      "id": 4107447823,
      "lat": 0.305107,
      "lon": 32.519599,
      "tags": {
        "addr:city": "Kampala",
        "addr:street": "Masaka Road",
        "amenity": "mobile_money_agent",
        "female": "yes",
        "male": "no",
        "name": "Margin free Supermarket",
        "network": "Airtel Money;MTN Mobile Money",
        "opening_hours": "Mo-Su 09:00-21:00",
        "shop": "supermarket"
      }
    },
    {
      "type": "node",
      "id": 4107447836,
      "lat": 0.3031213,
      "lon": 32.5249138,
      "tags": {
        "addr:city": "Kampala",
        "addr:street": "Masaka Road",
        "amenity": "mobile_money_agent",
        "female": "no",
        "male": "yes",
        "network": "Airtel Money;MTN Mobile Money",
        "opening_hours": "Mo-Sa 08:00-18:00",
        "shop": "supermarket"
      }
    },
    {
      "type": "node",
      "id": 4107557040,
      "lat": 0.3113234,
      "lon": 32.5592626,
      "tags": {
        "addr:city": "Kampala",
        "addr:street": "Albert Cook Road",
        "amenity": "mobile_money_agent",
        "female": "yes",
        "level": "0",
        "male": "no",
        "name": "Rapid Response",
        "network": "Airtel Money;MTN Mobile Money",
        "opening_hours": "Mo-Sa 09:00-17:00",
        "shop": "supermarket"
      }
    },
    {
      "type": "node",
      "id": 4107557046,
      "lat": 0.3111164,
      "lon": 32.5590746,
      "tags": {
        "addr:city": "Kampala",
        "addr:street": "Albert Cook Road",
        "amenity": "mobile_money_agent",
        "female": "no",
        "level": "0",
        "male": "yes",
        "name": "Swab Investments",
        "network": "Airtel Money;MTN Mobile Money",
        "opening_hours": "Mo-Sa 08:00-18:00",
        "shop": "supermarket"
      }
    },
    {
      "type": "node",
      "id": 4107571594,
      "lat": 0.2485095,
      "lon": 32.6122933,
      "tags": {
        "addr:city": "Kampala",
        "addr:street": "Salaama Road",
        "amenity": "mobile_money_agent",
        "female": "yes",
        "level": "0",
        "male": "no",
        "name": "Lucky Supermarket",
        "network": "Airtel Money;MTN Mobile Money",
        "opening_hours": "Mo-Su 09:00-21:00",
        "shop": "supermarket"
      }
    },
    {
      "type": "node",
      "id": 4107571595,
      "lat": 0.2467063,
      "lon": 32.6186322,
      "tags": {
        "addr:city": "Kampala",
        "addr:street": "Lukuli Road",
        "amenity": "mobile_money_agent",
        "female": "no",
        "level": "0",
        "male": "yes",
        "name": "M&J Retail Shop",
        "network": "Airtel Money;MTN Mobile Money",
        "opening_hours": "Mo-Su 09:00-21:00",
        "shop": "supermarket"
      }
    },
    {
      "type": "node",
      "id": 4107571606,
      "lat": 0.2963511,
      "lon": 32.5756256,
      "tags": {
        "addr:city": "Kampala",
        "addr:street": "Kayemba Road",
        "amenity": "mobile_money_agent",
        "female": "yes",
        "level": "0",
        "name": "Safe Enterprise",
        "network": "Airtel Money;MTN Mobile Money",
        "opening_hours": "Mo-Fr 08:00-18:00; Sa-Su 08:00-15:00; Mo-Sa 08:00-18:00",
        "shop": "supermarket"
      }
    },
    {
      "type": "node",
      "id": 4107662765,
      "lat": 0.3167029,
      "lon": 32.5420403,
      "tags": {
        "addr:city": "Kampala",
        "addr:street": "Makamba Road",
        "amenity": "mobile_money_agent",
        "female": "no",
        "male": "yes",
        "name": "Jez Min Shoppers",
        "network": "Airtel Money;MTN Mobile Money",
        "opening_hours": "Mo-Sa 09:00-17:00",
        "shop": "supermarket"
      }
    },
    {
      "type": "node",
      "id": 4107809640,
      "lat": 0.368624,
      "lon": 32.6030794,
      "tags": {
        "addr:city": "Kampala",
        "addr:street": "Kisaasi Road",
        "amenity": "mobile_money_agent",
        "female": "no",
        "male": "yes",
        "network": "Airtel Money;MTN Mobile Money",
        "opening_hours": "Mo-Su 09:00-21:00",
        "shop": "supermarket"
      }
    },
    {
      "type": "node",
      "id": 4107809661,
      "lat": 0.3719817,
      "lon": 32.6015805,
      "tags": {
        "addr:city": "Kampala",
        "addr:street": "Kisaasi Road",
        "amenity": "mobile_money_agent",
        "female": "no",
        "level": "0",
        "male": "yes;no",
        "network": "Airtel Money;Vodacom M-Pesa;UTL M-Sente;MTN Mobile Money",
        "opening_hours": "Mo-Su 08 : 00 - 21 : 00",
        "shop": "supermarket"
      }
    },
    {
      "type": "node",
      "id": 4109362102,
      "lat": 0.2970858,
      "lon": 32.5415694,
      "tags": {
        "addr:city": "Kampala",
        "addr:street": "Masaka Road",
        "amenity": "mobile_money_agent",
        "female": "no",
        "level": "0",
        "male": "yes",
        "name": "Quick Supermarket",
        "network": "MTN Mobile Money",
        "opening_hours": "Mo-Su 09:00-21:00",
        "shop": "supermarket"
      }
    },
    {
      "type": "node",
      "id": 4109438367,
      "lat": 0.2797962,
      "lon": 32.5659227,
      "tags": {
        "addr:city": "Kampala",
        "addr:street": "Entebbe Road",
        "amenity": "mobile_money_agent",
        "female": "yes",
        "male": "no",
        "name": "Buge Shop",
        "network": "Airtel Money",
        "opening_hours": "Mo-Su 09:00-21:00",
        "shop": "supermarket"
      }
    },
    {
      "type": "node",
      "id": 4109438377,
      "lat": 0.2791831,
      "lon": 32.5661714,
      "tags": {
        "addr:city": "Kampala",
        "addr:street": "Entebbe Road",
        "amenity": "mobile_money_agent",
        "female": "no",
        "male": "yes",
        "name": "Jajo Supermarket",
        "network": "Airtel Money;MTN Mobile Money",
        "opening_hours": "Mo-Sa 08:00-18:00",
        "phone": "0705929180",
        "shop": "supermarket"
      }
    },
    {
      "type": "node",
      "id": 4109438383,
      "lat": 0.2844785,
      "lon": 32.5628244,
      "tags": {
        "addr:city": "Kampala",
        "addr:street": "Kiwewa Road",
        "amenity": "mobile_money_agent",
        "female": "no",
        "level": "0",
        "male": "yes",
        "name": "Lynzz Shopping Point",
        "network": "Airtel Money;MTN Mobile Money",
        "opening_hours": "Mo-Sa 08:00-18:00",
        "phone": "0751923192",
        "shop": "supermarket"
      }
    },
    {
      "type": "node",
      "id": 4109498898,
      "lat": 0.2999537,
      "lon": 32.5568587,
      "tags": {
        "addr:city": "Kampala",
        "addr:street": "Kabuusu Road",
        "amenity": "mobile_money_agent",
        "female": "no",
        "level": "0",
        "male": "yes",
        "name": "Kyles",
        "network": "MTN Mobile Money",
        "opening_hours": "Mo-Su 09:00-21:00",
        "shop": "supermarket"
      }
    },
    {
      "type": "node",
      "id": 4109498901,
      "lat": 0.3023198,
      "lon": 32.5581775,
      "tags": {
        "addr:city": "Kampala",
        "addr:street": "Kabuusu Road",
        "amenity": "mobile_money_agent",
        "female": "no",
        "level": "0",
        "male": "yes",
        "name": "Martin Telecom Services",
        "network": "MTN Mobile Money;Airtel Money",
        "opening_hours": "Mo-Su 07:00-23:00",
        "shop": "supermarket"
      }
    },
    {
      "type": "node",
      "id": 4114253389,
      "lat": 0.3386865,
      "lon": 32.5880803,
      "tags": {
        "addr:city": "Kampala",
        "amenity": "mobile_money_agent",
        "level": "0",
        "male": "yes",
        "name": "Haba Quick Services Limited",
        "network": "MTN Mobile Money",
        "opening_hours": "Mo-Sa 09:00-17:00",
        "shop": "supermarket"
      }
    },
    {
      "type": "node",
      "id": 4114345231,
      "lat": 0.2974362,
      "lon": 32.5596126,
      "tags": {
        "addr:city": "Kampala",
        "addr:street": "Nabunya Road",
        "amenity": "mobile_money_agent",
        "female": "yes",
        "male": "yes",
        "name": "A & B Grocery",
        "network": "Airtel Money;MTN Mobile Money",
        "opening_hours": "Mo-Sa 09:00-17:00",
        "shop": "supermarket"
      }
    },
    {
      "type": "node",
      "id": 4114531273,
      "lat": 0.2902352,
      "lon": 32.5633907,
      "tags": {
        "addr:city": "Kampala",
        "addr:street": "Weraga Road",
        "amenity": "mobile_money_agent",
        "female": "yes",
        "level": "0",
        "male": "yes",
        "name": "J And S Retailers",
        "network": "Airtel Money;MTN Mobile Money",
        "opening_hours": "Mo-Su 09:00-21:00",
        "shop": "supermarket"
      }
    },
    {
      "type": "node",
      "id": 4116892000,
      "lat": 0.3079015,
      "lon": 32.5682356,
      "tags": {
        "addr:city": "Kampala",
        "addr:street": "Kisenyi Road",
        "female": "yes",
        "male": "no",
        "name": "Kisenyi Diamond Accesories",
        "network": "Airtel Money;Safaricom M-Pesa;MTN Mobile Money",
        "opening_hours": "Mo-Su 09:00-21:00",
        "shop": "supermarket"
      }
    },
    {
      "type": "node",
      "id": 4116913536,
      "lat": 0.3611731,
      "lon": 32.5961995,
      "tags": {
        "addr:city": "Kampala",
        "addr:street": "Kikulu Road",
        "amenity": "mobile_money_agent",
        "female": "yes",
        "level": "0",
        "male": "no",
        "name": "Solace Supermarket",
        "network": "Airtel Money;MTN Mobile Money",
        "opening_hours": "Mo-Fr 08:00-18:00; Sa-Su 08:00-15:00",
        "shop": "supermarket"
      }
    },
    {
      "type": "node",
      "id": 4117141926,
      "lat": 0.3215189,
      "lon": 32.6377711,
      "tags": {
        "addr:city": "Kampala",
        "amenity": "mobile_money_agent",
        "female": "yes",
        "level": "1",
        "male": "no",
        "name": "Ariena Enterprises",
        "network": "Airtel Money;MTN Mobile Money",
        "opening_hours": "Mo-Su 09:00-21:00",
        "shop": "supermarket"
      }
    },
    {
      "type": "node",
      "id": 4117141928,
      "lat": 0.323681,
      "lon": 32.6388123,
      "tags": {
        "addr:city": "Kampala",
        "female": "yes",
        "male": "yes",
        "name": "Eriamis Supermarket",
        "opening_hours": "Mo-Su 09:00-21:00",
        "shop": "supermarket"
      }
    },
    {
      "type": "node",
      "id": 4118808321,
      "lat": 0.3110417,
      "lon": 32.5773348,
      "tags": {
        "addr:city": "Kampala",
        "addr:street": "Burton Street",
        "amenity": "mobile_money_agent",
        "female": "yes",
        "level": "0",
        "male": "no",
        "name": "Mega Standard Supermarket",
        "network": "Airtel Money;MTN Mobile Money",
        "opening_hours": "Mo-Su 09:00-21:00",
        "shop": "supermarket"
      }
    },
    {
      "type": "node",
      "id": 4119115393,
      "lat": 0.3168537,
      "lon": 32.5699918,
      "tags": {
        "addr:city": "Kampala",
        "addr:street": "Martin Road",
        "amenity": "mobile_money_agent",
        "female": "no",
        "male": "yes",
        "name": "Quality Supermarket",
        "network": "Airtel Money;MTN Mobile Money",
        "opening_hours": "Mo-Su 09:00-21:00",
        "shop": "supermarket"
      }
    },
    {
      "type": "node",
      "id": 4119120225,
      "lat": 0.3781864,
      "lon": 32.5912015,
      "tags": {
        "addr:city": "Kampala",
        "amenity": "mobile_money_agent",
        "female": "yes",
        "male": "no",
        "network": "Airtel Money;MTN Mobile Money",
        "opening_hours": "Mo-Su 09:00-21:00",
        "shop": "supermarket"
      }
    },
    {
      "type": "node",
      "id": 4119308378,
      "lat": 0.343104,
      "lon": 32.589283,
      "tags": {
        "addr:city": "Kampala",
        "amenity": "mobile_money_agent",
        "female": "yes",
        "level": "1",
        "male": "yes",
        "name": "Price Chopper Supermarket",
        "network": "Airtel Money;payway;MTN Mobile Money",
        "opening_hours": "Mo-Su 09:00-21:00",
        "shop": "supermarket"
      }
    },
    {
      "type": "node",
      "id": 4120889500,
      "lat": 0.3174123,
      "lon": 32.5758979,
      "tags": {
        "addr:city": "Kampala",
        "addr:street": "Kampala Road",
        "amenity": "mobile_money_agent",
        "female": "no",
        "level": "0",
        "male": "yes",
        "name": "Muto's Supermarket",
        "network": "Airtel Money;MTN Mobile Money",
        "opening_hours": "Mo-Fr 08:00-18:00; Sa-Su 08:00-15:00",
        "shop": "supermarket"
      }
    },
    {
      "type": "node",
      "id": 4123466924,
      "lat": 0.3170609,
      "lon": 32.5736407,
      "tags": {
        "addr:city": "Kampala",
        "addr:street": "Kikubo Lane",
        "amenity": "mobile_money_agent",
        "female": "yes",
        "level": "0",
        "male": "yes",
        "name": "Pride Supermarket",
        "network": "Airtel Money;MTN Mobile Money",
        "opening_hours": "Mo-Sa 09:00-17:00",
        "shop": "supermarket"
      }
    },
    {
      "type": "node",
      "id": 4123796172,
      "lat": 0.3051386,
      "lon": 32.5460681,
      "tags": {
        "addr:city": "Kampala",
        "addr:street": "Sekabaka Kintu Road",
        "amenity": "mobile_money_agent",
        "female": "yes",
        "level": "0",
        "male": "yes",
        "name": "Ray C's Retailers",
        "network": "Airtel Money;MTN Mobile Money",
        "shop": "supermarket"
      }
    },
    {
      "type": "node",
      "id": 4123796175,
      "lat": 0.3049951,
      "lon": 32.5460691,
      "tags": {
        "addr:city": "Kampala",
        "addr:street": "Sekabaka Kintu Road",
        "amenity": "mobile_money_agent",
        "female": "yes",
        "level": "0",
        "male": "no",
        "name": "Silver Apples Reatail Outlet",
        "network": "Airtel Money;MTN Mobile Money",
        "shop": "supermarket"
      }
    },
    {
      "type": "node",
      "id": 4124066938,
      "lat": 0.3642061,
      "lon": 32.6106179,
      "tags": {
        "addr:city": "Kampala",
        "amenity": "mobile_money_agent",
        "female": "yes",
        "male": "yes",
        "name": "Harambe Supermarket",
        "network": "Airtel Money;payway;MTN Mobile Money",
        "opening_hours": "Mo-Sa 08:00-18:00",
        "shop": "supermarket"
      }
    },
    {
      "type": "node",
      "id": 4133512993,
      "lat": 0.3658101,
      "lon": 32.6159592,
      "tags": {
        "addr:city": "Kampala",
        "addr:street": "Ntinda-Kigoowa",
        "amenity": "mobile_money_agent",
        "female": "yes",
        "level": "0",
        "male": "no",
        "network": "Airtel Money;MTN Mobile Money",
        "opening_hours": "Mo-Su 09:00-21:00",
        "shop": "supermarket"
      }
    },
    {
      "type": "node",
      "id": 4442145496,
      "lat": 0.3182217,
      "lon": 32.5981243,
      "tags": {
        "addr:city": "Kampala",
        "addr:street": "Old Portbell Road",
        "name": "Bonjour",
        "shop": "supermarket"
      }
    },
    {
      "type": "node",
      "id": 4442270017,
      "lat": 0.3191719,
      "lon": 32.6000991,
      "tags": {
        "addr:city": "Kampala",
        "addr:street": "Old Portbell Road",
        "name": "Shop Dot Com",
        "operator": "Petro",
        "shop": "supermarket"
      }
    },
    {
      "type": "node",
      "id": 4695511103,
      "lat": 0.3452873,
      "lon": 32.5876248,
      "tags": {
        "name": "Praise Jesus Glossary",
        "shop": "supermarket"
      }
    },
    {
      "type": "node",
      "id": 4722114319,
      "lat": 0.3509988,
      "lon": 32.6053746,
      "tags": {
        "name": "Safeway Supermarket",
        "shop": "supermarket"
      }
    },
    {
      "type": "node",
      "id": 4755806422,
      "lat": 0.2886127,
      "lon": 32.6068126,
      "tags": {
        "name": "ELITE supermarket",
        "name:en": "ELITE supermarket",
        "name:zh": "爱丽特 超市",
        "shop": "supermarket"
      }
    },
    {
      "type": "node",
      "id": 4782852236,
      "lat": 0.299298,
      "lon": 32.6083191,
      "tags": {
        "name": "TMt Supermarket",
        "name:en": "MTM Supermarket",
        "shop": "supermarket"
      }
    },
    {
      "type": "node",
      "id": 4784556925,
      "lat": 0.2962713,
      "lon": 32.5420262,
      "tags": {
        "name": "Family Supermarket",
        "name:en": "Family Supermarket",
        "shop": "supermarket"
      }
    },
    {
      "type": "node",
      "id": 5015892621,
      "lat": 0.3164204,
      "lon": 32.5739892,
      "tags": {
        "name:zh": "中国超市",
        "shop": "supermarket"
      }
    },
    {
      "type": "node",
      "id": 5389342222,
      "lat": 0.364416,
      "lon": 32.6239329,
      "tags": {
        "addr:street": "Kiwatule Road",
        "name": "New Day Supermarket",
        "opening_hours": "Mo-Su 07:00-10:00",
        "shop": "supermarket"
      }
    },
    {
      "type": "node",
      "id": 5875492959,
      "lat": 0.3532594,
      "lon": 32.5978348,
      "tags": {
        "name": "Best Buy",
        "shop": "supermarket"
      }
    },
    {
      "type": "node",
      "id": 5890447388,
      "lat": 0.3189833,
      "lon": 32.5755357,
      "tags": {
        "addr:housenumber": "24-27",
        "addr:street": "Buganda Road",
        "name": "Senana Hypermarket",
        "opening_hours": "Mo-Su 08:00-21:00",
        "operator": "senana investments",
        "phone": "0200906625",
        "shop": "supermarket"
      }
    },
    {
      "type": "node",
      "id": 5951651537,
      "lat": 0.2560368,
      "lon": 32.6350446,
      "tags": {
        "addr:city": "Kampala",
        "addr:division": "Makindye",
        "addr:parish": "Ggaba",
        "addr:village": "Ggaba Mission",
        "shop": "supermarket",
        "source": "UOM Field Survey"
      }
    },
    {
      "type": "node",
      "id": 5951651988,
      "lat": 0.2562044,
      "lon": 32.6352276,
      "tags": {
        "name": "Ggaba shopping center",
        "opening_hours": "Mo-Su 17:00-00:00",
        "shop": "supermarket",
        "source": "UOM Field Survey"
      }
    },
    {
      "type": "node",
      "id": 5951653097,
      "lat": 0.2568547,
      "lon": 32.6354629,
      "tags": {
        "addr:city": "Kampala",
        "addr:division": "Makindye",
        "addr:parish": "Ggaba",
        "addr:village": "Ggaba Mission",
        "name": "Miracle Supermarket",
        "opening_hours": "Mo-Su 17:00-00:00",
        "shop": "supermarket",
        "source": "UOM Field Survey"
      }
    },
    {
      "type": "node",
      "id": 6106942541,
      "lat": 0.3065609,
      "lon": 32.6011287,
      "tags": {
        "name": "FunFair Supermarket",
        "shop": "supermarket"
      }
    },
    {
      "type": "way",
      "id": 124542611,
      "nodes": [
        1386101459,
        1386101458,
        1386101456,
        1386101455,
        1386101459
      ],
      "tags": {
        "shop": "supermarket"
      }
    },
    {
      "type": "way",
      "id": 127569244,
      "nodes": [
        1411555731,
        4440465709,
        1411555728,
        1411555729,
        4440465717,
        1411555727,
        4440465710,
        1411555731
      ],
      "tags": {
        "building": "yes",
        "name": "Bonjour",
        "operator": "Total",
        "shop": "supermarket"
      }
    },
    {
      "type": "way",
      "id": 157841513,
      "nodes": [
        1700860010,
        1700860012,
        1700860011,
        1700860013,
        1700860018,
        1700860014,
        1700860019,
        4483871927,
        1700860010
      ],
      "tags": {
        "building": "yes",
        "name": "Nakumatt",
        "shop": "supermarket"
      }
    },
    {
      "type": "way",
      "id": 167452434,
      "nodes": [
        1788466095,
        1788466072,
        1788466073,
        1788466106,
        1788466095
      ],
      "tags": {
        "name": "Embassy Supermarket",
        "shop": "supermarket"
      }
    },
    {
      "type": "way",
      "id": 168146958,
      "nodes": [
        1794464639,
        1794464646,
        1794464641,
        1794464645,
        1794464639
      ],
      "tags": {
        "name": "Super Market",
        "shop": "supermarket"
      }
    },
    {
      "type": "way",
      "id": 228883723,
      "nodes": [
        2375428736,
        2375428719,
        2375428705,
        2375428698,
        2375428737,
        2375428736
      ],
      "tags": {
        "building": "yes",
        "shop": "supermarket"
      }
    },
    {
      "type": "way",
      "id": 228883728,
      "nodes": [
        2375428645,
        2375428592,
        2375428604,
        2375428599,
        2375428600,
        2375428633,
        2375428637,
        2375428662,
        2375428645
      ],
      "tags": {
        "building": "yes",
        "shop": "supermarket"
      }
    },
    {
      "type": "way",
      "id": 230331786,
      "nodes": [
        2388473597,
        2388473590,
        2388473601,
        2388473600,
        2388473597
      ],
      "tags": {
        "name": "chum supermarket",
        "shop": "supermarket"
      }
    },
    {
      "type": "way",
      "id": 255707664,
      "nodes": [
        2613789493,
        2613789494,
        2613789495,
        2613789496,
        2613789497,
        2613789498,
        2613789493
      ],
      "tags": {
        "building": "yes",
        "name": "Super supermarket",
        "shop": "supermarket"
      }
    },
    {
      "type": "way",
      "id": 260734306,
      "nodes": [
        2662971883,
        2662971877,
        2662971872,
        2662971864,
        2662971856,
        2662971868,
        2662971883
      ],
      "tags": {
        "name": "Extra Groceries",
        "shop": "supermarket"
      }
    },
    {
      "type": "way",
      "id": 260799342,
      "nodes": [
        2663562420,
        2663562413,
        2663562428,
        2663562433,
        2663562420
      ],
      "tags": {
        "name": "Bulange Food Point",
        "shop": "supermarket"
      }
    },
    {
      "type": "node",
      "id": 2375428592,
      "lat": 0.2988783,
      "lon": 32.5330341
    },
    {
      "type": "node",
      "id": 2375428599,
      "lat": 0.2989112,
      "lon": 32.5327629
    },
    {
      "type": "node",
      "id": 2375428600,
      "lat": 0.2989278,
      "lon": 32.5326755
    },
    {
      "type": "node",
      "id": 2375428604,
      "lat": 0.2989292,
      "lon": 32.5327663
    },
    {
      "type": "node",
      "id": 2375428633,
      "lat": 0.2990805,
      "lon": 32.5327045
    },
    {
      "type": "node",
      "id": 2375428637,
      "lat": 0.2990917,
      "lon": 32.5326454
    },
    {
      "type": "node",
      "id": 2375428645,
      "lat": 0.2991353,
      "lon": 32.5330829
    },
    {
      "type": "node",
      "id": 2375428662,
      "lat": 0.2992141,
      "lon": 32.5326686
    },
    {
      "type": "node",
      "id": 2375428698,
      "lat": 0.2994046,
      "lon": 32.5334103
    },
    {
      "type": "node",
      "id": 2375428705,
      "lat": 0.2994379,
      "lon": 32.5333258
    },
    {
      "type": "node",
      "id": 2375428719,
      "lat": 0.2994776,
      "lon": 32.5333104
    },
    {
      "type": "node",
      "id": 2375428736,
      "lat": 0.2995519,
      "lon": 32.533345
    },
    {
      "type": "node",
      "id": 2375428737,
      "lat": 0.2995519,
      "lon": 32.5334704
    },
    {
      "type": "node",
      "id": 2662971856,
      "lat": 0.3168135,
      "lon": 32.5523997
    },
    {
      "type": "node",
      "id": 2662971864,
      "lat": 0.3168716,
      "lon": 32.5523109
    },
    {
      "type": "node",
      "id": 2662971868,
      "lat": 0.3169197,
      "lon": 32.5524692
    },
    {
      "type": "node",
      "id": 2662971872,
      "lat": 0.3169443,
      "lon": 32.5523585
    },
    {
      "type": "node",
      "id": 2662971877,
      "lat": 0.3169612,
      "lon": 32.5523326
    },
    {
      "type": "node",
      "id": 2662971883,
      "lat": 0.3169948,
      "lon": 32.5523546
    },
    {
      "type": "node",
      "id": 2663562413,
      "lat": 0.3190909,
      "lon": 32.5515672
    },
    {
      "type": "node",
      "id": 2663562420,
      "lat": 0.3191205,
      "lon": 32.5515358
    },
    {
      "type": "node",
      "id": 2663562428,
      "lat": 0.3191512,
      "lon": 32.5516239
    },
    {
      "type": "node",
      "id": 2663562433,
      "lat": 0.3191808,
      "lon": 32.5515924
    },
    {
      "type": "node",
      "id": 1788466072,
      "lat": 0.3006988,
      "lon": 32.5937809
    },
    {
      "type": "node",
      "id": 1788466073,
      "lat": 0.3005698,
      "lon": 32.5936647
    },
    {
      "type": "node",
      "id": 1788466095,
      "lat": 0.3007948,
      "lon": 32.5935516
    },
    {
      "type": "node",
      "id": 1788466106,
      "lat": 0.3006712,
      "lon": 32.5934221
    },
    {
      "type": "node",
      "id": 1411555727,
      "lat": 0.3196164,
      "lon": 32.5952394
    },
    {
      "type": "node",
      "id": 1411555728,
      "lat": 0.3194475,
      "lon": 32.5953493
    },
    {
      "type": "node",
      "id": 1411555729,
      "lat": 0.3194976,
      "lon": 32.5951996
    },
    {
      "type": "node",
      "id": 1411555731,
      "lat": 0.3195663,
      "lon": 32.595389
    },
    {
      "type": "node",
      "id": 4440465709,
      "lat": 0.3195154,
      "lon": 32.595372
    },
    {
      "type": "node",
      "id": 4440465710,
      "lat": 0.3195993,
      "lon": 32.5952907
    },
    {
      "type": "node",
      "id": 4440465717,
      "lat": 0.3195766,
      "lon": 32.5952261
    },
    {
      "type": "node",
      "id": 1794464639,
      "lat": 0.2594794,
      "lon": 32.6269125
    },
    {
      "type": "node",
      "id": 1794464641,
      "lat": 0.2593521,
      "lon": 32.6269776
    },
    {
      "type": "node",
      "id": 1794464645,
      "lat": 0.2594758,
      "lon": 32.6269838
    },
    {
      "type": "node",
      "id": 1794464646,
      "lat": 0.2593557,
      "lon": 32.6269063
    },
    {
      "type": "node",
      "id": 2613789493,
      "lat": 0.2775899,
      "lon": 32.6144908
    },
    {
      "type": "node",
      "id": 2613789494,
      "lat": 0.2774272,
      "lon": 32.6146175
    },
    {
      "type": "node",
      "id": 2613789495,
      "lat": 0.2776279,
      "lon": 32.614875
    },
    {
      "type": "node",
      "id": 2613789496,
      "lat": 0.2777445,
      "lon": 32.6147841
    },
    {
      "type": "node",
      "id": 2613789497,
      "lat": 0.277672,
      "lon": 32.6146911
    },
    {
      "type": "node",
      "id": 2613789498,
      "lat": 0.2777181,
      "lon": 32.6146553
    },
    {
      "type": "node",
      "id": 2388473590,
      "lat": 0.2956291,
      "lon": 32.6231247
    },
    {
      "type": "node",
      "id": 2388473597,
      "lat": 0.2956989,
      "lon": 32.6231705
    },
    {
      "type": "node",
      "id": 2388473600,
      "lat": 0.2955917,
      "lon": 32.6233342
    },
    {
      "type": "node",
      "id": 2388473601,
      "lat": 0.2955219,
      "lon": 32.6232884
    },
    {
      "type": "node",
      "id": 1700860010,
      "lat": 0.3454354,
      "lon": 32.5974681
    },
    {
      "type": "node",
      "id": 1700860012,
      "lat": 0.3453431,
      "lon": 32.5974154
    },
    {
      "type": "node",
      "id": 1700860011,
      "lat": 0.3451425,
      "lon": 32.5977729
    },
    {
      "type": "node",
      "id": 1700860013,
      "lat": 0.3451062,
      "lon": 32.5977524
    },
    {
      "type": "node",
      "id": 1700860014,
      "lat": 0.3450718,
      "lon": 32.5981155
    },
    {
      "type": "node",
      "id": 1700860018,
      "lat": 0.3449425,
      "lon": 32.5980424
    },
    {
      "type": "node",
      "id": 1700860019,
      "lat": 0.3451148,
      "lon": 32.5980393
    },
    {
      "type": "node",
      "id": 4483871927,
      "lat": 0.345251,
      "lon": 32.5977911
    },
    {
      "type": "node",
      "id": 1386101455,
      "lat": 0.3804247,
      "lon": 32.5583545
    },
    {
      "type": "node",
      "id": 1386101456,
      "lat": 0.380438,
      "lon": 32.5583861
    },
    {
      "type": "node",
      "id": 1386101458,
      "lat": 0.3805785,
      "lon": 32.5583269
    },
    {
      "type": "node",
      "id": 1386101459,
      "lat": 0.3805651,
      "lon": 32.5582953
    }
  ]
}